STARLINK-34809          
1 65069U 25165P   25325.19402506  .00005493  00000+0  38450-3 0  9992
2 65069  97.6047  40.2610 0001790  87.9983 272.1449 15.05662797 18461
STARLINK-34794          
1 65070U 25165Q   25325.20787036  .00008468  00000+0  59016-3 0  9996
2 65070  97.6063  40.2432 0001453  74.3738 285.7649 15.05662774 18464
STARLINK-34805          
1 65071U 25165R   25325.20233157  .00009525  00000+0  66313-3 0  9990
2 65071  97.6063  40.2512 0001824  88.0696 272.0740 15.05666181 18468
STARLINK-34735          
1 65072U 25165S   25325.17464235  .00005928  00000+0  41464-3 0  9993
2 65072  97.6041  40.2859 0000580  78.3724 281.7567 15.05659357 18462
STARLINK-34781          
1 65073U 25165T   25325.21618383  .00008909  00000+0  62060-3 0  9991
2 65073  97.6077  40.3873 0001874  94.9501 265.1939 15.05666812 18477
STARLINK-34780          
1 65074U 25165U   25325.19681750  .00005083  00000+0  35633-3 0  9993
2 65074  97.6041  40.2570 0003384 105.4688 254.6912 15.05636374 18467
CREW DRAGON 11          
1 65077U 25166A   25324.86734766  .00014275  00000+0  26737-3 0  9994
2 65077  51.6324 250.7347 0003960 150.1460 209.9755 15.48935269  2147
STARLINK-34771          
1 65078U 25167A   25324.87843551  .00034118  00000+0  85864-3 0  9994
2 65078  53.1577 170.4765 0000923 110.5873 249.5231 15.39636945 16841
STARLINK-34634          
1 65079U 25167B   25325.53686426  .00043271  00000+0  10844-2 0  9990
2 65079  53.1546 167.4760 0001542 103.6532 256.4644 15.39655375 16946
STARLINK-34267          
1 65080U 25167C   25324.99897861  .00053205  00000+0  13305-2 0  9991
2 65080  53.1559 169.8052 0001254  90.1567 269.9581 15.39627328 18083
STARLINK-34561          
1 65081U 25167D   25324.54922353  .00042386  00000+0  10612-2 0  9994
2 65081  53.1551 171.9759 0003260  56.7960 303.3357 15.39688873 18040
STARLINK-34626          
1 65082U 25167E   25325.55596571  .00039673  00000+0  99533-3 0  9991
2 65082  53.1572 169.0477 0001132 356.0088   4.0907 15.39660524 16926
STARLINK-34247          
1 65083U 25167F   25325.01291000  .00021849  00000+0  55465-3 0  9994
2 65083  53.1568 169.8934 0001261  84.6507 275.4642 15.39619698 16860
STARLINK-34601          
1 65084U 25167G   25324.97999473  .00031189  00000+0  10603-2 0  9990
2 65084  53.1576 171.7672 0001513  93.7840 266.3334 15.30214142 16832
STARLINK-34792          
1 65085U 25167H   25325.00215454  .00017606  00000+0  60508-3 0  9994
2 65085  53.1567 171.9075 0000902  81.9052 278.2051 15.30203158 16830
STARLINK-34822          
1 65086U 25167J   25324.99898991  .00021387  00000+0  73190-3 0  9997
2 65086  53.1577 171.8874 0001239  91.6257 268.4886 15.30210486 16836
STARLINK-34686          
1 65087U 25167K   25324.60393372  .00031145  00000+0  10582-2 0  9997
2 65087  53.1576 173.6870 0000788  96.0752 264.0339 15.30232605 16774
STARLINK-34594          
1 65088U 25167L   25324.99265479  .00029653  00000+0  10083-2 0  9993
2 65088  53.1589 171.8466 0000651  56.5219 303.5844 15.30231199 16832
STARLINK-34665          
1 65089U 25167M   25324.98948993  .00024823  00000+0  84705-3 0  9999
2 65089  53.1595 171.8268 0000415  45.7626 314.3409 15.30214535 16832
STARLINK-34673          
1 65090U 25167N   25324.98633066  .00035446  00000+0  12022-2 0  9998
2 65090  53.1545 171.8050 0002295  89.0651 271.0612 15.30225590 16833
STARLINK-34648          
1 65091U 25167P   25324.98422054  .00038244  00000+0  12956-2 0  9997
2 65091  53.1549 171.7910 0002381  90.2601 269.8673 15.30227300 16830
STARLINK-34640          
1 65092U 25167Q   25324.98210507  .00028183  00000+0  95991-3 0  9998
2 65092  53.1606 171.7798 0000600  76.2570 283.8497 15.30205565 16839
STARLINK-34266          
1 65093U 25167R   25324.97894708  .00035490  00000+0  12029-2 0  9998
2 65093  53.1591 171.7583 0000762 112.9755 247.1326 15.30246609 16835
STARLINK-34769          
1 65094U 25167S   25324.97577297  .00028462  00000+0  96909-3 0  9991
2 65094  53.1586 171.7377 0001190  90.4280 269.6857 15.30210982 16833
STARLINK-34768          
1 65095U 25167T   25324.97261017  .00033162  00000+0  11261-2 0  9992
2 65095  53.1569 171.7173 0001904  85.7857 274.3361 15.30219310 16836
STARLINK-34759          
1 65096U 25167U   25325.55727260  .00027714  00000+0  94395-3 0  9991
2 65096  53.1585 168.9672 0001276  88.3835 271.7312 15.30214071 16920
STARLINK-34741          
1 65097U 25167V   25325.55409690  .00023398  00000+0  79857-3 0  9996
2 65097  53.1580 168.9471 0001386  81.2870 278.8288 15.30242729 16927
STARLINK-34764          
1 65098U 25167W   25324.57122025  .00019008  00000+0  65207-3 0  9999
2 65098  53.1590 173.4764 0000320 333.9553  26.1432 15.30208343 16779
STARLINK-34815          
1 65099U 25167X   25325.55199640  .00026022  00000+0  88733-3 0  9999
2 65099  53.1608 168.9319 0001281  83.5191 276.5955 15.30211471 16922
STARLINK-34814          
1 65100U 25167Y   25324.95994351  .00014915  00000+0  51468-3 0  9990
2 65100  53.1579 171.6372 0001581  69.8430 290.2740 15.30199265 16839
STARLINK-34285          
1 65101U 25167Z   25324.95677764  .00022631  00000+0  77361-3 0  9991
2 65101  53.1571 171.6172 0000794  86.3298 273.7793 15.30211884 16837
STARLINK-34857          
1 65102U 25167AA  25324.94938807  .00019391  00000+0  66499-3 0  9998
2 65102  53.1530 171.5732 0001024 150.2217 209.8842 15.30205561 16833
STARLINK-34887          
1 65103U 25167AB  25325.01681964  .00025821  00000+0  88030-3 0  9997
2 65103  53.1571 171.2799 0001349 102.2930 257.8221 15.30221904 16842
STARLINK-34481          
1 65104U 25167AC  25325.53405295  .00024399  00000+0  83305-3 0  9995
2 65104  53.1556 168.8180 0001217  85.9971 274.1169 15.30205807 16924
STARLINK-34545          
1 65105U 25167AD  25325.00837809  .00028719  00000+0  97801-3 0  9994
2 65105  53.1567 171.2276 0002035  47.8101 312.3073 15.30199751 16842
HULIANWANG DIGUI-49     
1 65106U 25168A   25325.52548690 -.00000067  00000+0  11810-3 0  9993
2 65106  50.0055 350.8463 0008979 211.8684 148.1647 13.33405735 15064
HULIANWANG DIGUI-50     
1 65107U 25168B   25325.59245678 -.00000064  00000+0  12455-3 0  9994
2 65107  50.0063 350.5018 0009407 199.5118 160.5397 13.33492553 15073
HULIANWANG DIGUI-51     
1 65108U 25168C   25325.28307727 -.00000061  00000+0  12984-3 0  9999
2 65108  50.0070 351.5776 0011501 196.3496 163.7009 13.33405862 15034
HULIANWANG DIGUI-52     
1 65109U 25168D   25325.57291289 -.00000074  00000+0  10362-3 0  9999
2 65109  50.0049 350.4328 0010455 209.7167 150.3114 13.32812366 15076
HULIANWANG DIGUI-53     
1 65110U 25168E   25325.26754144 -.00000069  00000+0  11487-3 0  9994
2 65110  50.0062 351.5006 0009268 203.3557 156.6897 13.33643720 15031
HULIANWANG DIGUI-54     
1 65111U 25168F   25325.62022493 -.00000069  00000+0  11335-3 0  9992
2 65111  50.0008 349.9792 0011464 208.5986 151.4260 13.33973072 15087
HULIANWANG DIGUI-55     
1 65112U 25168G   25325.55987289 -.00000070  00000+0  11004-3 0  9993
2 65112  50.0013 350.3308 0011737 196.9844 163.0639 13.34843498 15076
HULIANWANG DIGUI-56     
1 65113U 25168H   25325.55183387 -.00000088  00000+0  76105-4 0  9994
2 65113  50.0004 350.2797 0011777 219.2766 140.7255 13.33705246 15077
HULIANWANG DIGUI-57     
1 65114U 25168J   25325.53701766 -.00000050  00000+0  15154-3 0  9995
2 65114  50.0034 350.2350 0009712 213.9405 146.0849 13.34057979 15086
QPS-SAR-12 (KUSHINADA-I)
1 65116U 25169A   25325.51838697  .00006825  00000+0  57802-3 0  9991
2 65116  42.0123  77.6135 0007022 279.3500  80.6531 14.98334623 16237
GEESAT-4 01             
1 65119U 25170A   25325.52056383  .00002720  00000+0  35711-3 0  9996
2 65119  49.9885  57.0962 0011085 332.2322  27.8023 14.83152255 15608
GEESAT-4 02             
1 65120U 25170B   25325.57652284  .00002504  00000+0  33005-3 0  9999
2 65120  49.9863  56.6917 0010307  10.4643 349.6508 14.83278532 15631
GEESAT-4 03             
1 65121U 25170C   25325.61033705  .00002637  00000+0  34595-3 0  9998
2 65121  49.9935  56.2328 0021463 346.4896  13.5465 14.83215782 15616
GEESAT-4 04             
1 65122U 25170D   25325.58355178  .00010015  00000+0  64861-3 0  9994
2 65122  49.9812  55.2543 0010703  73.4671 286.7452 15.08605045 15626
GEESAT-4 05             
1 65123U 25170E   25325.23056237  .00009139  00000+0  59781-3 0  9991
2 65123  49.9959  57.5277 0024311 358.3755   1.7110 15.08156423 15566
GEESAT-4 06             
1 65124U 25170F   25325.56537345  .00002641  00000+0  34611-3 0  9998
2 65124  49.9852  56.6028 0019736 326.1849  33.7829 14.83259434 15600
GEESAT-4 07             
1 65125U 25170G   25325.55418654  .00002566  00000+0  33739-3 0  9995
2 65125  49.9931  56.6179 0018935 339.5170  20.5007 14.83236073 15607
GEESAT-4 08             
1 65126U 25170H   25325.57667631  .00009754  00000+0  63729-3 0  9997
2 65126  49.9716  55.1379 0007384 198.3143 161.7541 15.08327752 15628
GEESAT-4 09             
1 65127U 25170J   25325.56313970  .00000589  00000+0  16657-3 0  9996
2 65127  49.9934  71.0687 0021663 327.9303  32.0305 14.58046273 15408
GEESAT-4 10             
1 65128U 25170K   25325.60617106  .00009480  00000+0  61790-3 0  9997
2 65128  49.9918  55.4763 0025868   9.7582 350.3864 15.08216069 15625
GEESAT-4 11             
1 65129U 25170L   25325.53150056  .00002619  00000+0  34409-3 0  9990
2 65129  49.9844  56.4168 0007541   9.1470 350.9604 14.83261327 15607
KUIPER-00081            
1 65132U 25171A   25325.66672454 -.00800732  00000+0 -37519-1 0  9997
2 65132  51.8833 271.8092 0003535 130.8341 258.8968 15.21876478  5507
KUIPER-00088            
1 65133U 25171B   25324.62377709  .00003952  00000+0  49500-3 0  9990
2 65133  51.8992 287.6795 0008239 111.2087 248.9758 14.84181236 16648
KUIPER-00095            
1 65134U 25171C   25325.66672454 -.00549363  00000+0 -27593-1 0  9990
2 65134  51.8808 272.7279 0005601 117.5480 132.1542 15.18973129  2629
